{
    "links": {
        "self": "http://www.neowsapp.com/rest/v1/neo/54017317?api_key=iIulBulltgU6a56xZRHN4H3l9WmuAYTsLGpBGhQ2"
    },
    "id": "54017317",
    "neo_reference_id": "54017317",
    "name": "(2020 KK7)",
    "designation": "2020 KK7",
    "nasa_jpl_url": "http://ssd.jpl.nasa.gov/sbdb.cgi?sstr=54017317",
    "absolute_magnitude_h": 26.328,
    "estimated_diameter": {
        "kilometers": {
            "estimated_diameter_min": 0.0144196585,
            "estimated_diameter_max": 0.0322433367
        },
        "meters": {
            "estimated_diameter_min": 14.419658549,
            "estimated_diameter_max": 32.2433367278
        },
        "miles": {
            "estimated_diameter_min": 0.0089599577,
            "estimated_diameter_max": 0.0200350744
        },
        "feet": {
            "estimated_diameter_min": 47.3085925538,
            "estimated_diameter_max": 105.78522887
        }
    },
    "is_potentially_hazardous_asteroid": false,
    "close_approach_data": [
        {
            "close_approach_date": "2015-05-07",
            "close_approach_date_full": "2015-May-07 13:06",
            "epoch_date_close_approach": 1431003960000,
            "relative_velocity": {
                "kilometers_per_second": "4.2448261924",
                "kilometers_per_hour": "15281.3742924767",
                "miles_per_hour": "9495.2517096781"
            },
            "miss_distance": {
                "astronomical": "1.9715084958",
                "lunar": "766.9168048662",
                "kilometers": "294933471.658583946",
                "miles": "183263161.2629366148"
            },
            "orbiting_body": "Juptr"
        },
        {
            "close_approach_date": "2020-06-02",
            "close_approach_date_full": "2020-Jun-02 04:15",
            "epoch_date_close_approach": 1591071300000,
            "relative_velocity": {
                "kilometers_per_second": "15.7263852416",
                "kilometers_per_hour": "56614.9868697856",
                "miles_per_hour": "35178.3511469509"
            },
            "miss_distance": {
                "astronomical": "0.0039232943",
                "lunar": "1.5261614827",
                "kilometers": "586916.470663141",
                "miles": "364692.9838317058"
            },
            "orbiting_body": "Moon"
        },
        {
            "close_approach_date": "2020-06-02",
            "close_approach_date_full": "2020-Jun-02 09:43",
            "epoch_date_close_approach": 1591090980000,
            "relative_velocity": {
                "kilometers_per_second": "15.1629002733",
                "kilometers_per_hour": "54586.4409839156",
                "miles_per_hour": "33917.8916213669"
            },
            "miss_distance": {
                "astronomical": "0.0034274263",
                "lunar": "1.3332688307",
                "kilometers": "512735.674061981",
                "miles": "318599.1742220978"
            },
            "orbiting_body": "Earth"
        },
        {
            "close_approach_date": "2020-07-15",
            "close_approach_date_full": "2020-Jul-15 10:28",
            "epoch_date_close_approach": 1594808880000,
            "relative_velocity": {
                "kilometers_per_second": "8.125861967",
                "kilometers_per_hour": "29253.1030812728",
                "miles_per_hour": "18176.7406340276"
            },
            "miss_distance": {
                "astronomical": "0.1095946124",
                "lunar": "42.6323042236",
                "kilometers": "16395120.578515588",
                "miles": "10187455.5288995944"
            },
            "orbiting_body": "Venus"
        },
        {
            "close_approach_date": "2088-10-17",
            "close_approach_date_full": "2088-Oct-17 13:06",
            "epoch_date_close_approach": 3748856760000,
            "relative_velocity": {
                "kilometers_per_second": "8.2203897628",
                "kilometers_per_hour": "29593.4031461456",
                "miles_per_hour": "18388.1898604481"
            },
            "miss_distance": {
                "astronomical": "0.1124819364",
                "lunar": "43.7554732596",
                "kilometers": "16827058.098915468",
                "miles": "10455849.0585027384"
            },
            "orbiting_body": "Venus"
        }
    ],
    "orbital_data": {
        "orbit_id": "3",
        "orbit_determination_date": "2020-06-23 15:05:32",
        "first_observation_date": "2020-05-16",
        "last_observation_date": "2020-06-02",
        "data_arc_in_days": 17,
        "observations_used": 51,
        "orbit_uncertainty": "7",
        "minimum_orbit_intersection": ".00331728",
        "jupiter_tisserand_invariant": "3.300",
        "epoch_osculation": "2459000.5",
        "eccentricity": ".6387470568167484",
        "semi_major_axis": "2.27926566381456",
        "inclination": "2.417830629898099",
        "ascending_node_longitude": "76.60551031892905",
        "orbital_period": "1256.871414435758",
        "perihelion_distance": ".8233914293495376",
        "perihelion_argument": "234.3288316781689",
        "aphelion_distance": "3.735139898279582",
        "perihelion_time": "2459043.235715659695",
        "mean_anomaly": "347.7594020670786",
        "mean_motion": ".2864254814495987",
        "equinox": "J2000",
        "orbit_class": {
            "orbit_class_type": "APO",
            "orbit_class_description": "Near-Earth asteroid orbits which cross the Earth’s orbit similar to that of 1862 Apollo",
            "orbit_class_range": "a (semi-major axis) > 1.0 AU; q (perihelion) < 1.017 AU"
        }
    },
    "is_sentry_object": false
}